NOAA 15                 
1 25338U 98030A   22198.51805956  .00000178  00000+0  92432-4 0  9991
2 25338  98.6423 227.6580 0009894 203.9058 156.1664 14.26151175257558
NOAA 18                 
1 28654U 05018A   22198.51859438  .00000164  00000+0  11238-3 0  9992
2 28654  98.9482 268.9295 0013333 244.2895 115.6901 14.12754191884227
NOAA 19                 
1 33591U 09005A   22198.59415884  .00000162  00000+0  11265-3 0  9997
2 33591  99.1460 233.3614 0014963 102.9697 257.3145 14.12588768692702
METOP-B                 
1 38771U 12049A   22198.63031883  .00000077  00000+0  55366-4 0  9998
2 38771  98.6941 257.9342 0000988  57.2022  97.7019 14.21496035510015
SARAL                   
1 39086U 13009A   22198.50391498  .00000049  00000+0  34284-4 0  9997
2 39086  98.5478  23.6957 0001644 133.3549 226.7772 14.32052095490786
METOP-C                 
1 43689U 18087A   22198.56662897  .00000075  00000+0  54250-4 0  9996
2 43689  98.6823 258.0562 0001901 336.5361  23.5729 14.21496138191585
ANGELS                  
1 44876U 19092D   22198.45820321  .00002677  00000+0  13470-3 0  9996
2 44876  97.4750  21.4707 0010375 250.9259 109.0851 15.18044327142794
